[{"OBJECT_NAME":"OBJECT E","OBJECT_ID":"2024-174E","EPOCH":"2026-03-09T23:40:24.424320","MEAN_MOTION":15.26241811,"ECCENTRICITY":0.00122518,"INCLINATION":97.4515,"RA_OF_ASC_NODE":80.1669,"ARG_OF_PERICENTER":217.7524,"MEAN_ANOMALY":142.2856,"EPHEMERIS_TYPE":0,"CLASSIFICATION_TYPE":"U","NORAD_CAT_ID":61242,"ELEMENT_SET_NO":999,"REV_AT_EPOCH":8070,"BSTAR":0.00031155901,"MEAN_MOTION_DOT":8.013e-5,"MEAN_MOTION_DDOT":0},{"OBJECT_NAME":"STARLINK-36515","OBJECT_ID":"2026-005AC","EPOCH":"2026-03-08T13:42:09.743040","MEAN_MOTION":15.2759908,"ECCENTRICITY":0.00016148,"INCLINATION":42.9999,"RA_OF_ASC_NODE":244.4472,"ARG_OF_PERICENTER":259.2943,"MEAN_ANOMALY":100.7727,"EPHEMERIS_TYPE":0,"CLASSIFICATION_TYPE":"U","NORAD_CAT_ID":67430,"ELEMENT_SET_NO":999,"REV_AT_EPOCH":851,"BSTAR":0.0014270247,"MEAN_MOTION_DOT":0.00039239,"MEAN_MOTION_DDOT":0}]
